ORBCOMM-X [-]           
1 21576U 91050C   23268.17843079  .00000710  00000+0  22903-3 0  9992
2 21576  98.4259 334.2745 0002567 299.4847  60.6086 14.42181380691139
ORBCOMM FM01 [-]        
1 23545U 95017A   23268.51522046  .00007835  00000+0  11316-2 0  9993
2 23545  69.9693 188.2483 0006664 220.4720 139.5933 14.76529639519039
ORBCOMM FM02 [-]        
1 23546U 95017B   23268.54675387  .00012673  00000+0  18442-2 0  9997
2 23546  69.9704 207.1735 0007993 209.1051 150.9651 14.76007977518692
ORBCOMM FM08 [-]        
1 25112U 97084A   23268.51172818  .00002702  00000+0  87167-3 0  9995
2 25112  45.0143 143.6286 0007667 311.2114  48.8074 14.41262566350252
ORBCOMM FM10 [-]        
1 25113U 97084B   23268.50755655  .00002514  00000+0  81529-3 0  9998
2 25113  45.0153 145.3567 0004987 284.3368  75.6928 14.41209198525407
ORBCOMM FM11 [+]        
1 25114U 97084C   23268.50816219  .00002525  00000+0  82054-3 0  9999
2 25114  45.0138 145.2502 0005760 284.3322  75.6888 14.41091972350375
ORBCOMM FM12 [-]        
1 25115U 97084D   23268.39490164  .00002963  00000+0  95525-3 0  9997
2 25115  45.0148 145.4286 0004833 286.3764  73.6554 14.41087506350152
ORBCOMM FM09 [-]        
1 25116U 97084E   23268.54014588  .00002413  00000+0  78633-3 0  9998
2 25116  45.0150 145.3665 0005758 268.8168  91.2022 14.41066776350383
